WNISAT 1R               
1 42835U 17042L   26068.86192839  .00004802  00000+0  37840-3 0  9992
2 42835  97.4515 228.7079 0013301 131.3338 228.9034 15.01153186471607
STARLINK-5615           
1 55425U 23014AL  26068.43823130 -.00000431  00000+0 -28320-4 0  9995
2 55425  69.9995  85.1293 0002953 271.2407  88.8414 14.98327810171522
